SHIJIAN-6 02B (SJ-6 02B)
1 29506U 06046B   26062.23153988  .00002775  00000+0  22192-3 0  9992
2 29506  97.7051  92.0192 0014210  63.4599 296.8080 15.00960614 54846
FGRST (GLAST)           
1 33053U 08029A   26061.87041750  .00004628  00000+0  17585-3 0  9998
2 33053  25.5811 222.3471 0008569 148.5067 211.5985 15.23265943979600
SDO                     
1 36395U 10005A   26062.06732368 -.00000069  00000+0  00000+0 0  9997
2 36395  34.4278  87.9487 0000370  70.7532 284.4475  1.00275344 58994
CRYOSAT 2               
1 36508U 10013A   26062.15142362  .00000226  00000+0  55393-4 0  9995
2 36508  92.0224 251.6117 0002124  86.5705 273.5745 14.51905038842694
X-SAT                   
1 37389U 11015C   26062.21403227  .00000432  00000+0  20117-3 0  9997
2 37389  98.3411  44.3423 0013017 297.3012  62.6843 14.25170028772582
GCOM-W1 (SHIZUKU)       
1 38337U 12025A   26061.94392594  .00000772  00000+0  18144-3 0  9990
2 38337  98.2047   4.1062 0001526  76.3825  13.3888 14.57086077733564
NUSTAR                  
1 38358U 12031A   26062.25001156  .00011348  00000+0  66821-3 0  9992
2 38358   6.0256 108.1070 0008474 328.2177  56.9295 15.07608288  1303
NEOSSAT                 
1 39089U 13009D   26062.07551905  .00000267  00000+0  10718-3 0  9994
2 39089  98.4135 244.6402 0010658 197.2622 162.8203 14.35781176681518
BRITE-AUSTRIA           
1 39091U 13009F   26062.05707686  .00000281  00000+0  11028-3 0  9995
2 39091  98.3949 244.1306 0009968 190.8644 169.2329 14.36491289681813
IRIS                    
1 39197U 13033A   26062.09413168  .00001701  00000+0  20195-3 0  9995
2 39197  97.9398 261.6668 0023536 308.0460  51.8631 14.85620021684620
HISAKI (SPRINT-A)       
1 39253U 13049A   26062.14740468  .00000111  00000+0  58849-4 0  9999
2 39253  29.7218  39.1159 0136736 237.0831 121.6521 13.55529914617029
CASSIOPE                
1 39265U 13055A   26062.16202948  .00039577 -59521-6  47767-3 0  9991
2 39265  80.9190 194.7857 0317729  57.9993 305.1691 15.18188112651548
STSAT-3                 
1 39422U 13066G   26062.21733209  .00003623  00000+0  28048-3 0  9997
2 39422  97.6052  33.9655 0012180  36.7412 323.4646 15.02020375668291
SWARM B                 
1 39451U 13067A   26062.11930187  .00005471  00000+0  20051-3 0  9992
2 39451  87.7482  14.4783 0003708  90.5050 269.6623 15.27779632667040
SWARM A                 
1 39452U 13067B   26062.13186336  .00012042  00000+0  22522-3 0  9991
2 39452  87.3289  95.5883 0003032  93.6681 266.4926 15.48572287689828
SWARM C                 
1 39453U 13067C   26062.13175391  .00012362  00000+0  23124-3 0  9995
2 39453  87.3286  94.1700 0003019  93.6088 266.5517 15.48571795689780
BRITE-CA1 (TORONTO)     
1 40020U 14033L   26061.90146809  .00001524  00000+0  23749-3 0  9998
2 40020  97.9556 192.9101 0077689 256.9523 102.3004 14.72438680626570
