[{"OBJECT_NAME":"SHIJIAN-6 02B (SJ-6 02B)","OBJECT_ID":"2006-046B","EPOCH":"2026-03-03T05:33:25.045632","MEAN_MOTION":15.00960614,"ECCENTRICITY":0.001421,"INCLINATION":97.7051,"RA_OF_ASC_NODE":92.0192,"ARG_OF_PERICENTER":63.4599,"MEAN_ANOMALY":296.808,"EPHEMERIS_TYPE":0,"CLASSIFICATION_TYPE":"U","NORAD_CAT_ID":29506,"ELEMENT_SET_NO":999,"REV_AT_EPOCH":5484,"BSTAR":0.00022192,"MEAN_MOTION_DOT":2.775e-5,"MEAN_MOTION_DDOT":0},{"OBJECT_NAME":"FGRST (GLAST)","OBJECT_ID":"2008-029A","EPOCH":"2026-03-02T20:53:24.072000","MEAN_MOTION":15.23265943,"ECCENTRICITY":0.0008569,"INCLINATION":25.5811,"RA_OF_ASC_NODE":222.3471,"ARG_OF_PERICENTER":148.5067,"MEAN_ANOMALY":211.5985,"EPHEMERIS_TYPE":0,"CLASSIFICATION_TYPE":"U","NORAD_CAT_ID":33053,"ELEMENT_SET_NO":999,"REV_AT_EPOCH":97960,"BSTAR":0.00017585,"MEAN_MOTION_DOT":4.628e-5,"MEAN_MOTION_DDOT":0},{"OBJECT_NAME":"SDO","OBJECT_ID":"2010-005A","EPOCH":"2026-03-03T01:36:56.765952","MEAN_MOTION":1.00275344,"ECCENTRICITY":3.7e-5,"INCLINATION":34.4278,"RA_OF_ASC_NODE":87.9487,"ARG_OF_PERICENTER":70.7532,"MEAN_ANOMALY":284.4475,"EPHEMERIS_TYPE":0,"CLASSIFICATION_TYPE":"U","NORAD_CAT_ID":36395,"ELEMENT_SET_NO":999,"REV_AT_EPOCH":5899,"BSTAR":0,"MEAN_MOTION_DOT":-6.9e-7,"MEAN_MOTION_DDOT":0},{"OBJECT_NAME":"CRYOSAT 2","OBJECT_ID":"2010-013A","EPOCH":"2026-03-03T03:38:03.000768","MEAN_MOTION":14.51905038,"ECCENTRICITY":0.0002124,"INCLINATION":92.0224,"RA_OF_ASC_NODE":251.6117,"ARG_OF_PERICENTER":86.5705,"MEAN_ANOMALY":273.5745,"EPHEMERIS_TYPE":0,"CLASSIFICATION_TYPE":"U","NORAD_CAT_ID":36508,"ELEMENT_SET_NO":999,"REV_AT_EPOCH":84269,"BSTAR":5.5393e-5,"MEAN_MOTION_DOT":2.26e-6,"MEAN_MOTION_DDOT":0},{"OBJECT_NAME":"X-SAT","OBJECT_ID":"2011-015C","EPOCH":"2026-03-03T05:08:12.388128","MEAN_MOTION":14.25170028,"ECCENTRICITY":0.0013017,"INCLINATION":98.3411,"RA_OF_ASC_NODE":44.3423,"ARG_OF_PERICENTER":297.3012,"MEAN_ANOMALY":62.6843,"EPHEMERIS_TYPE":0,"CLASSIFICATION_TYPE":"U","NORAD_CAT_ID":37389,"ELEMENT_SET_NO":999,"REV_AT_EPOCH":77258,"BSTAR":0.00020117,"MEAN_MOTION_DOT":4.32e-6,"MEAN_MOTION_DDOT":0},{"OBJECT_NAME":"GCOM-W1 (SHIZUKU)","OBJECT_ID":"2012-025A","EPOCH":"2026-03-02T22:39:15.201216","MEAN_MOTION":14.57086077,"ECCENTRICITY":0.0001526,"INCLINATION":98.2047,"RA_OF_ASC_NODE":4.1062,"ARG_OF_PERICENTER":76.3825,"MEAN_ANOMALY":13.3888,"EPHEMERIS_TYPE":0,"CLASSIFICATION_TYPE":"U","NORAD_CAT_ID":38337,"ELEMENT_SET_NO":999,"REV_AT_EPOCH":73356,"BSTAR":0.00018144,"MEAN_MOTION_DOT":7.72e-6,"MEAN_MOTION_DDOT":0},{"OBJECT_NAME":"NUSTAR","OBJECT_ID":"2012-031A","EPOCH":"2026-03-03T06:00:00.998784","MEAN_MOTION":15.07608288,"ECCENTRICITY":0.0008474,"INCLINATION":6.0256,"RA_OF_ASC_NODE":108.107,"ARG_OF_PERICENTER":328.2177,"MEAN_ANOMALY":56.9295,"EPHEMERIS_TYPE":0,"CLASSIFICATION_TYPE":"U","NORAD_CAT_ID":38358,"ELEMENT_SET_NO":999,"REV_AT_EPOCH":130,"BSTAR":0.00066821,"MEAN_MOTION_DOT":0.00011348,"MEAN_MOTION_DDOT":0},{"OBJECT_NAME":"NEOSSAT","OBJECT_ID":"2013-009D","EPOCH":"2026-03-03T01:48:44.845920","MEAN_MOTION":14.35781176,"ECCENTRICITY":0.0010658,"INCLINATION":98.4135,"RA_OF_ASC_NODE":244.6402,"ARG_OF_PERICENTER":197.2622,"MEAN_ANOMALY":162.8203,"EPHEMERIS_TYPE":0,"CLASSIFICATION_TYPE":"U","NORAD_CAT_ID":39089,"ELEMENT_SET_NO":999,"REV_AT_EPOCH":68151,"BSTAR":0.00010718,"MEAN_MOTION_DOT":2.67e-6,"MEAN_MOTION_DDOT":0},{"OBJECT_NAME":"BRITE-AUSTRIA","OBJECT_ID":"2013-009F","EPOCH":"2026-03-03T01:22:11.440704","MEAN_MOTION":14.36491289,"ECCENTRICITY":0.0009968,"INCLINATION":98.3949,"RA_OF_ASC_NODE":244.1306,"ARG_OF_PERICENTER":190.8644,"MEAN_ANOMALY":169.2329,"EPHEMERIS_TYPE":0,"CLASSIFICATION_TYPE":"U","NORAD_CAT_ID":39091,"ELEMENT_SET_NO":999,"REV_AT_EPOCH":68181,"BSTAR":0.00011028,"MEAN_MOTION_DOT":2.81e-6,"MEAN_MOTION_DDOT":0},{"OBJECT_NAME":"IRIS","OBJECT_ID":"2013-033A","EPOCH":"2026-03-03T02:15:32.977152","MEAN_MOTION":14.85620021,"ECCENTRICITY":0.0023536,"INCLINATION":97.9398,"RA_OF_ASC_NODE":261.6668,"ARG_OF_PERICENTER":308.046,"MEAN_ANOMALY":51.8631,"EPHEMERIS_TYPE":0,"CLASSIFICATION_TYPE":"U","NORAD_CAT_ID":39197,"ELEMENT_SET_NO":999,"REV_AT_EPOCH":68462,"BSTAR":0.00020195,"MEAN_MOTION_DOT":1.701e-5,"MEAN_MOTION_DDOT":0},{"OBJECT_NAME":"HISAKI (SPRINT-A)","OBJECT_ID":"2013-049A","EPOCH":"2026-03-03T03:32:15.764352","MEAN_MOTION":13.55529914,"ECCENTRICITY":0.0136736,"INCLINATION":29.7218,"RA_OF_ASC_NODE":39.1159,"ARG_OF_PERICENTER":237.0831,"MEAN_ANOMALY":121.6521,"EPHEMERIS_TYPE":0,"CLASSIFICATION_TYPE":"U","NORAD_CAT_ID":39253,"ELEMENT_SET_NO":999,"REV_AT_EPOCH":61702,"BSTAR":5.8849e-5,"MEAN_MOTION_DOT":1.11e-6,"MEAN_MOTION_DDOT":0},{"OBJECT_NAME":"CASSIOPE","OBJECT_ID":"2013-055A","EPOCH":"2026-03-03T03:53:19.347072","MEAN_MOTION":15.18188112,"ECCENTRICITY":0.0317729,"INCLINATION":80.919,"RA_OF_ASC_NODE":194.7857,"ARG_OF_PERICENTER":57.9993,"MEAN_ANOMALY":305.1691,"EPHEMERIS_TYPE":0,"CLASSIFICATION_TYPE":"U","NORAD_CAT_ID":39265,"ELEMENT_SET_NO":999,"REV_AT_EPOCH":65154,"BSTAR":0.00047767,"MEAN_MOTION_DOT":0.00039577,"MEAN_MOTION_DDOT":-5.9521e-7},{"OBJECT_NAME":"STSAT-3","OBJECT_ID":"2013-066G","EPOCH":"2026-03-03T05:12:57.492576","MEAN_MOTION":15.02020375,"ECCENTRICITY":0.001218,"INCLINATION":97.6052,"RA_OF_ASC_NODE":33.9655,"ARG_OF_PERICENTER":36.7412,"MEAN_ANOMALY":323.4646,"EPHEMERIS_TYPE":0,"CLASSIFICATION_TYPE":"U","NORAD_CAT_ID":39422,"ELEMENT_SET_NO":999,"REV_AT_EPOCH":66829,"BSTAR":0.00028048,"MEAN_MOTION_DOT":3.623e-5,"MEAN_MOTION_DDOT":0},{"OBJECT_NAME":"SWARM B","OBJECT_ID":"2013-067A","EPOCH":"2026-03-03T02:51:47.681568","MEAN_MOTION":15.27779632,"ECCENTRICITY":0.0003708,"INCLINATION":87.7482,"RA_OF_ASC_NODE":14.4783,"ARG_OF_PERICENTER":90.505,"MEAN_ANOMALY":269.6623,"EPHEMERIS_TYPE":0,"CLASSIFICATION_TYPE":"U","NORAD_CAT_ID":39451,"ELEMENT_SET_NO":999,"REV_AT_EPOCH":66704,"BSTAR":0.00020051,"MEAN_MOTION_DOT":5.471e-5,"MEAN_MOTION_DDOT":0},{"OBJECT_NAME":"SWARM A","OBJECT_ID":"2013-067B","EPOCH":"2026-03-03T03:09:52.994304","MEAN_MOTION":15.48572287,"ECCENTRICITY":0.0003032,"INCLINATION":87.3289,"RA_OF_ASC_NODE":95.5883,"ARG_OF_PERICENTER":93.6681,"MEAN_ANOMALY":266.4926,"EPHEMERIS_TYPE":0,"CLASSIFICATION_TYPE":"U","NORAD_CAT_ID":39452,"ELEMENT_SET_NO":999,"REV_AT_EPOCH":68982,"BSTAR":0.00022522,"MEAN_MOTION_DOT":0.00012042,"MEAN_MOTION_DDOT":0},{"OBJECT_NAME":"SWARM C","OBJECT_ID":"2013-067C","EPOCH":"2026-03-03T03:09:43.537824","MEAN_MOTION":15.48571795,"ECCENTRICITY":0.0003019,"INCLINATION":87.3286,"RA_OF_ASC_NODE":94.17,"ARG_OF_PERICENTER":93.6088,"MEAN_ANOMALY":266.5517,"EPHEMERIS_TYPE":0,"CLASSIFICATION_TYPE":"U","NORAD_CAT_ID":39453,"ELEMENT_SET_NO":999,"REV_AT_EPOCH":68978,"BSTAR":0.00023124,"MEAN_MOTION_DOT":0.00012362,"MEAN_MOTION_DDOT":0},{"OBJECT_NAME":"BRITE-CA1 (TORONTO)","OBJECT_ID":"2014-033L","EPOCH":"2026-03-02T21:38:06.842976","MEAN_MOTION":14.7243868,"ECCENTRICITY":0.0077689,"INCLINATION":97.9556,"RA_OF_ASC_NODE":192.9101,"ARG_OF_PERICENTER":256.9523,"MEAN_ANOMALY":102.3004,"EPHEMERIS_TYPE":0,"CLASSIFICATION_TYPE":"U","NORAD_CAT_ID":40020,"ELEMENT_SET_NO":999,"REV_AT_EPOCH":62657,"BSTAR":0.00023749,"MEAN_MOTION_DOT":1.524e-5,"MEAN_MOTION_DDOT":0}]
